{"type": "FeatureCollection", "features": [{"type": "Feature", "properties": {"name": "Maritime"}, "geometry": {"type": "Polygon", "coordinates": [[[1.431014310143098, 6.182438438020441], [1.272612726127278, 6.133469697193846], [1.1862118621186255, 6.09969815179619], [1.1862118621186255, 6.135158274463734], [1.1754117541175617, 6.152044047162562], [1.0926109261092734, 6.160486933511976], [1.078210782107817, 6.167241242591501], [1.0494104941049613, 6.209455674338571], [1.0242102421024413, 6.222964292497636], [1.009810098100985, 6.244915797006101], [0.9846098460984649, 6.324278928690589], [0.9090090900909047, 6.324278928690589], [0.8874088740887487, 6.331033237770129], [0.8730087300873208, 6.3394761241195425], [0.8406084060840726, 6.380001978596724], [0.7650076500765124, 6.418839255804031], [0.7290072900729001, 6.464430842090863], [0.7182071820718363, 6.488070923869216], [0.7110071100711082, 6.513399582917458], [0.7146071460714722, 6.538435919216792], [0.9687164137778268, 6.6566449772953815], [1.0496166385773231, 6.798402578408012], [1.2240226972622437, 6.774297675988145], [1.4792154571649803, 6.938196124601734], [1.5488466389372473, 6.924163985309224], [1.5894158941589467, 6.88150942775188], [1.5822158221582185, 6.808900605146931], [1.600216002160039, 6.746423246161271], [1.5966159661596748, 6.731226050732317], [1.5750157501575188, 6.700831659874439], [1.5678156781567907, 6.67888015536596], [1.5714157141571548, 6.667060114476783], [1.5858158581585826, 6.6569286508574805], [1.5966159661596748, 6.63666572361889], [1.5966159661596748, 6.60120560095136], [1.6182161821618308, 6.5775655191729925], [1.6542165421654147, 6.570811210093467], [1.6578165781657788, 6.552236860124751], [1.6758167581675991, 6.5387282419657], [1.6830168301682988, 6.5201538919969835], [1.6830168301682988, 6.4897595011390905], [1.7190171901719111, 6.467807996630626], [1.7442174421744312, 6.425593564883556], [1.7838178381783791, 6.276998765133882], [1.6326163261632587, 6.244915797006101], [1.6110161101611027, 6.234784333386813], [1.6182161821618308, 6.214521406148222], [1.431014310143098, 6.182438438020441]]]}}, {"type": "Feature", "properties": {"name": "Plateaux"}, "geometry": {"type": "Polygon", "coordinates": [[[0.7146071460714722, 6.538435919216792], [0.7290072900729001, 6.570811210093467], [0.7146071460714722, 6.584319828252532], [0.6678066780667962, 6.586008405522406], [0.660606606066068, 6.60120560095136], [0.6318063180631839, 6.623157105459825], [0.6282062820628198, 6.645108609968304], [0.635406354063548, 6.710963123493727], [0.6102061020610279, 6.74135751435162], [0.5778057780577797, 6.754866132510685], [0.5418054180541958, 6.817343491496345], [0.5202052020520398, 6.8325406869252845], [0.5166051660516757, 6.840983573274698], [0.5454054540545599, 6.898395200450707], [0.5454054540545599, 6.915280973149535], [0.5346053460534677, 6.935543900388126], [0.4950049500495197, 6.972692600325544], [0.5670056700567159, 6.989578373024372], [0.5778057780577797, 6.996332682103912], [0.5994059940599357, 7.031792804771442], [0.5994059940599357, 7.158436100012651], [0.6462064620646402, 7.301965167952673], [0.6462064620646402, 7.323916672461152], [0.6246062460624557, 7.398214072335989], [0.5850058500585078, 7.384705454176924], [0.5490054900548955, 7.38301687690705], [0.5166051660516757, 7.411722690495054], [0.5022050220502194, 7.455625699511998], [0.4950049500495197, 7.504594440338593], [0.5022050220502194, 7.575514685673667], [0.5202052020520398, 7.595777612912258], [0.5634056340563518, 7.612663385611086], [0.5706057060570799, 7.68358363094616], [0.5850058500585078, 7.70384655818475], [0.613806138061392, 7.698780826375113], [0.592205922059236, 8.016233353113051], [0.5742057420574156, 8.124302298385544], [0.5842669335443118, 8.133740592475384], [1.0733224101479912, 7.8620431054733375], [1.117124074857264, 7.871562094699373], [1.1853604162112534, 7.941893411445809], [1.1973237474531753, 8.415825379875788], [1.2798018695299422, 8.486791537917105], [1.6374260294991523, 8.471539919330183], [1.6074160741607386, 8.421491897884906], [1.600216002160039, 8.370834579788422], [1.6110161101611027, 8.36576884797877], [1.6146161461614668, 8.355637384359483], [1.625416254162559, 8.271208520865343], [1.625416254162559, 6.996332682103912], [1.6074160741607386, 6.991266950294261], [1.5318153181531784, 6.991266950294261], [1.5488466389372473, 6.924163985309224], [1.4792154571649803, 6.938196124601734], [1.2240226972622437, 6.774297675988145], [1.0496166385773231, 6.798402578408012], [0.9687164137778268, 6.6566449772953815], [0.7146071460714722, 6.538435919216792]]]}}, {"type": "Feature", "properties": {"name": "Kara"}, "geometry": {"type": "Polygon", "coordinates": [[[0.4626046260462715, 9.137448660315172], [0.5058050580505835, 9.186417401141767], [0.49140491404915565, 9.259026223746716], [0.5238052380523754, 9.284354882794958], [0.5382053820538317, 9.37722663263851], [0.5310053100531036, 9.400866714416864], [0.5130051300513117, 9.416063909845818], [0.4842048420484275, 9.426195373465106], [0.49140491404915565, 9.46165549613265], [0.4842048420484275, 9.470098382482064], [0.4302043020430233, 9.488672732450766], [0.372603726037255, 9.490361309720655], [0.33300333003330707, 9.480229846101352], [0.3258032580325789, 9.451524032513348], [0.31500315003151513, 9.436326837084408], [0.2502025020250187, 9.417752487115692], [0.23220232202322677, 9.41944106438558], [0.2286022860228627, 9.432949682544645], [0.23580235802359084, 9.443081146163934], [0.2286022860228627, 9.473475537021827], [0.286202862028631, 9.488672732450766], [0.30060300603005885, 9.507247082419482], [0.29340293402935913, 9.519067123308659], [0.2538025380253828, 9.514001391499008], [0.22500225002249863, 9.532575741467724], [0.22140221402213456, 9.541018627817138], [0.2286022860228627, 9.576478750484668], [0.3042030420304229, 9.571413018675017], [0.32220322203221485, 9.583233059564208], [0.35460354603546307, 9.571413018675017], [0.372603726037255, 9.576478750484668], [0.37620376203761907, 9.589987368643733], [0.36900369003691935, 9.610250295882324], [0.351003510035099, 9.613627450422086], [0.307803078030787, 9.603495986802798], [0.27900279002790285, 9.606873141342561], [0.2610026100261109, 9.627136068581152], [0.2610026100261109, 9.657530459439045], [0.2754027540275388, 9.686236273027049], [0.30060300603005885, 9.657530459439045], [0.3186031860318792, 9.64908757308963], [0.33660336603367114, 9.650776150359505], [0.3474034740347349, 9.662596191248682], [0.351003510035099, 9.681170541217398], [0.3438034380343993, 9.713253509345165], [0.32220322203221485, 9.74195932293317], [0.32220322203221485, 9.760533672901886], [0.3438034380343993, 9.838208227316485], [0.3402034020340352, 9.904062740841908], [0.36900369003691935, 9.939522863509453], [0.351003510035099, 9.990180181605936], [0.35211685221073946, 10.025884216326993], [0.3834038340383472, 10.029017458813229], [0.39451526851204866, 10.037232027748814], [0.45224196122661764, 10.052682407269478], [0.6931599909019868, 9.998668756488167], [0.9218192837796305, 10.265959984692172], [1.3302133021330178, 9.996934490685462], [1.344613446134474, 9.963162945287806], [1.3482134821348382, 9.694679159376463], [1.3554135541355379, 9.635578954930565], [1.3518135181351738, 9.595053100453384], [1.323013230132318, 9.542707205087012], [1.3266132661326537, 9.522444277848422], [1.337413374133746, 9.49711561880018], [1.3518135181351738, 9.48191842337124], [1.3698136981369942, 9.490361309720655], [1.380613806138058, 9.46165549613265], [1.387813878138786, 9.360340859939683], [1.402214022140214, 9.321503582732376], [1.4238142381423984, 9.284354882794958], [1.5218860349103618, 9.18560371079889], [1.412369651009827, 9.123868606360752], [0.9983793258669738, 9.189867063992223], [0.8397700156560279, 8.969644137122408], [0.7864456800284323, 8.9509270028619], [0.4600589443950541, 9.098370702737348], [0.4626046260462715, 9.137448660315172]]]}}, {"type": "Feature", "properties": {"name": "Centrale"}, "geometry": {"type": "Polygon", "coordinates": [[[1.117124074857264, 7.871562094699373], [1.0733224101479912, 7.8620431054733375], [0.5842669335443118, 8.133740592475384], [0.592205922059236, 8.16482815286274], [0.5778057780577797, 8.180025348291679], [0.5742057420574156, 8.203665430070032], [0.5958059580596, 8.212108316419446], [0.6282062820628198, 8.242502707277339], [0.6894068940689522, 8.272897098135232], [0.70380703807038, 8.28302856175452], [0.7110071100711082, 8.298225757183474], [0.7074070740707441, 8.321865838961827], [0.6894068940689522, 8.331997302581115], [0.6858068580685881, 8.382654620677599], [0.6462064620646402, 8.41473758880538], [0.617406174061756, 8.489034988680217], [0.5490054900548955, 8.519429379538096], [0.4842048420484275, 8.580218161253882], [0.4446044460444796, 8.607235397571998], [0.4050040500405032, 8.661269870208244], [0.37620376203761907, 8.725435806463793], [0.3654036540365553, 8.774404547290388], [0.372603726037255, 8.78453601090969], [0.3978039780397751, 8.781158856369913], [0.4086040860408673, 8.759207351861448], [0.4266042660426592, 8.787913165449453], [0.4194041940419595, 8.791290319989216], [0.4302043020430233, 8.794667474528978], [0.4626046260462715, 8.787913165449453], [0.4734047340473353, 8.792978897259104], [0.47700477004769937, 8.821684710847109], [0.5058050580505835, 8.865587719864052], [0.49140491404915565, 8.914556460690648], [0.4302043020430233, 9.027691137772791], [0.4600589443950541, 9.098370702737348], [0.7864456800284323, 8.9509270028619], [0.8397700156560279, 8.969644137122408], [0.9983793258669738, 9.189867063992223], [1.412369651009827, 9.123868606360752], [1.5218860349103618, 9.18560371079889], [1.5678156781567907, 9.137448660315172], [1.5894158941589467, 9.100299960377754], [1.600216002160039, 9.04964264228127], [1.6074160741607386, 8.546446615856226], [1.6398163981639868, 8.502543606839268], [1.6398163981639868, 8.475526370521152], [1.6374260294991523, 8.471539919330183], [1.2798018695299422, 8.486791537917105], [1.1973237474531753, 8.415825379875788], [1.1853604162112534, 7.941893411445809], [1.117124074857264, 7.871562094699373]]]}}, {"type": "Feature", "properties": {"name": "Savanes"}, "geometry": {"type": "MultiPolygon", "coordinates": [[[[0.7722077220772405, 10.50857340345992], [0.7614076140761483, 10.381930108218711], [0.7686076860768765, 10.366732912789772], [0.9218192837796305, 10.265959984692172], [0.6931599909019868, 9.998668756488167], [0.45224196122661764, 10.052682407269478], [0.39451526851204866, 10.037232027748814], [0.3942039420394394, 10.072920467830187], [0.3618036180361912, 10.089806240529015], [0.35460354603546307, 10.115134899577257], [0.35820358203582714, 10.219826690309972], [0.372603726037255, 10.265418276596805], [0.3978039780397751, 10.28399262656552], [0.3654036540365553, 10.304255553804111], [0.307803078030787, 10.297501244724586], [0.3186031860318792, 10.317764171963177], [0.27900279002790285, 10.366732912789772], [0.2826028260282669, 10.397127303647665], [0.2718027180271747, 10.407258767266953], [0.23220232202322677, 10.398815880917539], [0.19620196201961448, 10.41063592180673], [0.18900189001891476, 10.395438726377776], [0.17820178201782255, 10.393750149107902], [0.1278012780127824, 10.491687630761092], [0.10980109801099047, 10.50857340345992], [0.055800558005586254, 10.540656371587687], [0.03060030600306618, 10.582870803334757], [-0.012600126001245826, 10.598067998763696], [-0.03420034200340183, 10.614953771462524], [-0.08100081000810633, 10.626773812351715], [-0.09900099000989826, 10.65379104866983], [-0.08460084600844198, 10.756794262132672], [-0.0594005940059219, 10.790565807530328], [-0.03060030600306618, 10.812517312038807], [-0.0378003780037659, 10.853043166515988], [-0.016200162001609897, 10.954357802708955], [0.012600126001274248, 10.98306361629696], [0.01620016200163832, 10.996572234456025], [0.01620016200163832, 11.062426747981448], [0.0018000180001820354, 11.086066829759801], [-0.03060030600306618, 11.097886870648978], [-0.10260102601026233, 11.08775540702969], [-0.12060120601205426, 11.092821138839327], [-0.1602016020160022, 11.118149797887568], [-0.16740167401673034, 11.135035570586396], [0.4878048780487916, 11.00332654353555], [0.49140491404915565, 10.996572234456025], [0.4842048420484275, 10.979686461757197], [0.49860498604985537, 10.97630930721742], [0.4878048780487916, 10.932406298200476], [0.613806138061392, 10.97630930721742], [0.6750067500674959, 10.988129348106611], [0.9018090180901766, 10.993195079916248], [0.8766087660876565, 10.930717720930588], [0.8730087300873208, 10.910454793691997], [0.8838088380883846, 10.869928939214816], [0.8658086580865927, 10.829403084737635], [0.8622086220862286, 10.795631539339979], [0.8514085140851364, 10.777057189371263], [0.7974079740797606, 10.726399871274793], [0.7830078300783043, 10.692628325877138], [0.7902079020790325, 10.564296453366055], [0.7722077220772405, 10.50857340345992]]], [[[0.3729678599147808, 10.031464927212486], [0.35211685221073946, 10.025884216326993], [0.351003510035099, 10.029017458813229], [0.36900369003691935, 10.032394613352992], [0.3729678599147808, 10.031464927212486]]]]}}]}